PERSEUS-M1              
1 40039U 14033AF  26165.09243411  .00001164  00000+0  11017-3 0  9995
2 40039  97.9644 109.1736 0010531 313.2965  46.7376 14.95623571650178
POLYITAN-1              
1 40042U 14033AJ  26164.59326023  .00018854  00000+0  59022-3 0  9996
2 40042  98.0941 190.5143 0008379 151.4693 208.7007 15.33140093653043
TIGRISAT                
1 40043U 14033AK  26164.94927271  .00002176  00000+0  25476-3 0  9994
2 40043  97.7824 315.0351 0050693  85.5733 275.1271 14.85151636645147
AEROCUBE 6A             
1 40045U 14033AM  26164.95109660  .00006435  00000+0  54028-3 0  9998
2 40045  97.7229 331.9340 0039155  28.9778 331.3607 14.98078813646130
AEROCUBE 6B             
1 40046U 14033AN  26164.42275109  .00005856  00000+0  47409-3 0  9994
2 40046  97.7232 331.1933 0038635  22.2270 338.0617 14.99536094646193
CANX-4                  
1 40055U 14034C   26165.17966865  .00000861  00000+0  11772-3 0  9999
2 40055  98.3126  40.3823 0013372  26.3681 333.8208 14.81259734644080
CANX-5                  
1 40056U 14034D   26165.17813679  .00000870  00000+0  11879-3 0  9992
2 40056  98.3128  40.4242 0013385  26.4954 333.6939 14.81276950634893
UKUBE-1                 
1 40074U 14037F   26164.99490226  .00008665  00000+0  48796-3 0  9991
2 40074  98.4230 167.9313 0002489 134.9390 225.2041 15.13509725648074
BRITE-PL2 (HEWELIUSZ)   
1 40119U 14049B   26165.09268211  .00001464  00000+0  14052-3 0  9991
2 40119  97.9095 277.0688 0015194 117.6671 242.6093 14.94584537640986
AEROCUBE 5C             
1 40965U 15058B   26164.68405739  .00002410  00000+0  21937-3 0  9995
2 40965  64.7679 273.4878 0130606  64.6416 296.8154 14.91439290365132
AEROCUBE 7              
1 40966U 15058C   26164.62352787  .00003277  00000+0  26787-3 0  9994
2 40966  64.7630 255.9778 0120314  63.1063 298.2287 14.95704832365427
FOX-1A (AO-85)          
1 40967U 15058D   26165.06588971  .00002476  00000+0  22792-3 0  9992
2 40967  64.7761 288.6834 0130258  57.8004 303.5661 14.90956726113100
SINOD-D 1               
1 40968U 15058E   26165.00303341  .00003470  00000+0  28236-3 0  9997
2 40968  64.7761 268.8837 0118842  54.3509 306.8602 14.95888248116181
SNAP-3 ALICE            
1 40970U 15058G   26165.16025417  .00122349  00000+0  14864-2 0  9990
2 40970  64.7496 114.3887 0028879  14.4829 345.7137 15.59447995116413
LMRST-SAT               
1 40971U 15058H   26164.61784411  .00002363  00000+0  21956-3 0  9990
2 40971  64.7766 286.4068 0131881  60.0183 301.3942 14.90575803113024
SNAP-3 EDDIE            
1 40972U 15058J   26165.15276582  .00129815  00000+0  15035-2 0  9998
2 40972  64.7423 105.1621 0028488  18.6640 341.5544 15.60680536118557
PROPCUBE 3              
1 40973U 15058K   26164.66218728  .00002930  00000+0  24855-3 0  9991
2 40973  64.7689 263.5489 0123866  61.3006 300.0491 14.94240218114271
BISONSAT                
1 40974U 15058L   26165.19689047  .00011087  00000+0  53816-3 0  9999
2 40974  64.7579 183.3125 0078750  48.4845 312.3000 15.16130749115167
SNAP-3 JIMI             
1 40975U 15058M   26164.52787880  .00004581  00000+0  31893-3 0  9992
2 40975  64.7647 231.3502 0105965  56.8578 304.2652 15.02269914113671
PROPCUBE 1 (FLORA)      
1 40976U 15058N   26165.10672713  .00002431  00000+0  23425-3 0  9990
2 40976  64.7755 304.7827 0130598  62.1260 299.3009 14.89209948115807
SINOD-D 3               
1 40977U 15058P   26165.02799472  .00003333  00000+0  28557-3 0  9997
2 40977  64.7736 285.6837 0119100  59.3834 301.8960 14.93998756114289
HORYU-4                 
1 41340U 16012D   26165.18331444  .00430944  66472-4  11344-2 0  9998
2 41340  30.9846 101.0543 0004612 251.9493 108.0665 15.93563943570336
RAVAN                   
1 41849U 16067B   26164.95393872  .00051836  00000+0  78780-3 0  9996
2 41849  97.9896  54.1541 0004888  41.3102 318.8519 15.54393413527192
CELTEE 1                
1 41850U 16067C   26165.11238250  .00005934  00000+0  28187-3 0  9999
2 41850  98.0677  31.4701 0000752 121.1330 238.9976 15.19656415525412
OPTICUBE 04             
1 41851U 16067D   26164.56625164  .00001869  00000+0  12025-3 0  9999
2 41851  98.0701  16.6614 0016779 126.7802 233.4968 15.09645471524622
AEROCUBE 8D             
1 41852U 16067E   26165.20169763  .00007512  00000+0  31002-3 0  9997
2 41852  98.0687  35.1463 0004541 130.5183 229.6448 15.24361449525610
AEROCUBE 8C             
1 41853U 16067F   26165.16154146  .00007740  00000+0  31686-3 0  9993
2 41853  98.0560  32.3349 0006722  77.4173 282.7815 15.24609042525605
CORVUS BC2              
1 42846U 17042X   26165.20549145  .00003850  00000+0  26571-3 0  9997
2 42846  97.4052 326.6713 0014195 119.8505 240.4136 15.06276912486614
CORVUS BC1              
1 42847U 17042Y   26165.20044068  .00003877  00000+0  26634-3 0  9991
2 42847  97.4087 327.4785 0013200  98.3822 261.8902 15.06447584486646
MAKERSAT 0              
1 43016U 17073D   26164.91423524  .00018871  00000+0  51447-3 0  9999
2 43016  97.4636  47.4083 0105274 284.8512  74.1088 15.31998671465964
