OBJECT_NAME,OBJECT_ID,EPOCH,MEAN_MOTION,ECCENTRICITY,INCLINATION,RA_OF_ASC_NODE,ARG_OF_PERICENTER,MEAN_ANOMALY,EPHEMERIS_TYPE,CLASSIFICATION_TYPE,NORAD_CAT_ID,ELEMENT_SET_NO,REV_AT_EPOCH,BSTAR,MEAN_MOTION_DOT,MEAN_MOTION_DDOT
PERSEUS-M1,2014-033AF,2026-06-14T02:13:06.307104,14.95623571,.0010531,97.9644,109.1736,313.2965,46.7376,0,U,40039,999,65017,.11017E-3,.1164E-4,0
POLYITAN-1,2014-033AJ,2026-06-13T14:14:17.683872,15.33140093,.0008379,98.0941,190.5143,151.4693,208.7007,0,U,40042,999,65304,.59022E-3,.18854E-3,0
TIGRISAT,2014-033AK,2026-06-13T22:46:57.162144,14.85151636,.0050693,97.7824,315.0351,85.5733,275.1271,0,U,40043,999,64514,.25476E-3,.2176E-4,0
AEROCUBE 6A,2014-033AM,2026-06-13T22:49:34.746240,14.98078813,.0039155,97.7229,331.9340,28.9778,331.3607,0,U,40045,999,64613,.54028E-3,.6435E-4,0
AEROCUBE 6B,2014-033AN,2026-06-13T10:08:45.694176,14.99536094,.00386355,97.7232,331.1933,22.2270,338.0617,0,U,40046,999,64619,.47408603E-3,.5856E-4,0
CANX-4,2014-034C,2026-06-14T04:18:43.371360,14.81259734,.0013372,98.3126,40.3823,26.3681,333.8208,0,U,40055,999,64408,.11772E-3,.861E-5,0
CANX-5,2014-034D,2026-06-14T04:16:31.018656,14.81276950,.0013385,98.3128,40.4242,26.4954,333.6939,0,U,40056,999,63489,.11879E-3,.87E-5,0
UKUBE-1,2014-037F,2026-06-13T23:52:39.555264,15.13509725,.0002489,98.4230,167.9313,134.9390,225.2041,0,U,40074,999,64807,.48796E-3,.8665E-4,0
BRITE-PL2 (HEWELIUSZ),2014-049B,2026-06-14T02:13:27.734304,14.94584537,.0015194,97.9095,277.0688,117.6671,242.6093,0,U,40119,999,64098,.14052E-3,.1464E-4,0
AEROCUBE 5C,2015-058B,2026-06-13T16:25:02.558496,14.91439290,.01306064,64.7679,273.4878,64.6416,296.8154,0,U,40965,999,36513,.21937275E-3,.241E-4,0
AEROCUBE 7,2015-058C,2026-06-13T14:57:52.807968,14.95704832,.01203147,64.7630,255.9778,63.1063,298.2287,0,U,40966,999,36542,.26786599E-3,.3277E-4,0
FOX-1A (AO-85),2015-058D,2026-06-14T01:34:52.870944,14.90956726,.0130258,64.7761,288.6834,57.8004,303.5661,0,U,40967,999,11310,.22792E-3,.2476E-4,0
SINOD-D 1,2015-058E,2026-06-14T00:04:22.086624,14.95888248,.0118842,64.7761,268.8837,54.3509,306.8602,0,U,40968,999,11618,.28236E-3,.347E-4,0
SNAP-3 ALICE,2015-058G,2026-06-14T03:50:45.960288,15.59447995,.0028879,64.7496,114.3887,14.4829,345.7137,0,U,40970,999,11641,.14864E-2,.122349E-2,0
LMRST-SAT,2015-058H,2026-06-13T14:49:41.731104,14.90575803,.0131881,64.7766,286.4068,60.0183,301.3942,0,U,40971,999,11302,.21956E-3,.2363E-4,0
SNAP-3 EDDIE,2015-058J,2026-06-14T03:39:58.966848,15.60680536,.0028488,64.7423,105.1621,18.6640,341.5544,0,U,40972,999,11855,.15035E-2,.129815E-2,0
PROPCUBE 3,2015-058K,2026-06-13T15:53:32.980992,14.94240218,.01238662,64.7689,263.5489,61.3006,300.0491,0,U,40973,999,11427,.24855117E-3,.293E-4,0
BISONSAT,2015-058L,2026-06-14T04:43:31.336608,15.16130749,.007875,64.7579,183.3125,48.4845,312.3000,0,U,40974,999,11516,.53816E-3,.11087E-3,0
SNAP-3 JIMI,2015-058M,2026-06-13T12:40:08.728320,15.02269914,.01059655,64.7647,231.3502,56.8578,304.2652,0,U,40975,999,11367,.31893366E-3,.4581E-4,0
PROPCUBE 1 (FLORA),2015-058N,2026-06-14T02:33:41.224032,14.89209948,.0130598,64.7755,304.7827,62.1260,299.3009,0,U,40976,999,11580,.23425E-3,.2431E-4,0
SINOD-D 3,2015-058P,2026-06-14T00:40:18.743808,14.93998756,.01191,64.7736,285.6837,59.3834,301.8960,0,U,40977,999,11428,.28557E-3,.3333E-4,0
HORYU-4,2016-012D,2026-06-14T04:23:58.367616,15.93563943,.0004612,30.9846,101.0543,251.9493,108.0665,0,U,41340,999,57033,.11344E-2,.430944E-2,.66472E-4
RAVAN,2016-067B,2026-06-13T22:53:40.305408,15.54393413,.0004888,97.9896,54.1541,41.3102,318.8519,0,U,41849,999,52719,.7878E-3,.51836E-3,0
CELTEE 1,2016-067C,2026-06-14T02:41:49.848000,15.19656415,.0000752,98.0677,31.4701,121.1330,238.9976,0,U,41850,999,52541,.28187E-3,.5934E-4,0
OPTICUBE 04,2016-067D,2026-06-13T13:35:24.141696,15.09645471,.0016779,98.0701,16.6614,126.7802,233.4968,0,U,41851,999,52462,.12025E-3,.1869E-4,0
AEROCUBE 8D,2016-067E,2026-06-14T04:50:26.675232,15.24361449,.0004541,98.0687,35.1463,130.5183,229.6448,0,U,41852,999,52561,.31002E-3,.7512E-4,0
AEROCUBE 8C,2016-067F,2026-06-14T03:52:37.182144,15.24609042,.0006722,98.0560,32.3349,77.4173,282.7815,0,U,41853,999,52560,.31686E-3,.774E-4,0
CORVUS BC2,2017-042X,2026-06-14T04:55:54.461280,15.06276912,.0014195,97.4052,326.6713,119.8505,240.4136,0,U,42846,999,48661,.26571E-3,.385E-4,0
CORVUS BC1,2017-042Y,2026-06-14T04:48:38.074752,15.06447584,.00132,97.4087,327.4785,98.3822,261.8902,0,U,42847,999,48664,.26634E-3,.3877E-4,0
MAKERSAT 0,2017-073D,2026-06-13T21:56:29.924736,15.31998671,.0105274,97.4636,47.4083,284.8512,74.1088,0,U,43016,999,46596,.51447E-3,.18871E-3,0
